start=new Date('2021-12-11T00:00:00.000Z').valueOf();
sats=[{"MEAN_ANOMALY":"245.2788","REV_AT_EPOCH":"11597","TIME_SYSTEM":"UTC","BSTAR":"0.00011776000000","PERIAPSIS":"298.181","GP_ID":"191456551","INCLINATION":"53.0507","PERIOD":"90.502","REF_FRAME":"TEME","COUNTRY_CODE":"US","CENTER_NAME":"EARTH","OBJECT_ID":"2019-074R","MEAN_MOTION_DOT":"0.00034809","TLE_LINE1":"1 44728U 19074R   21344.92172254  .00034809  11572-4  11776-3 0  9991","MEAN_ELEMENT_THEORY":"SGP4","DECAY_DATE":null,"CLASSIFICATION_TYPE":"U","SITE":"AFETR","EPHEMERIS_TYPE":"0","MEAN_MOTION_DDOT":"0.0000115720000","RCS_SIZE":"LARGE","APOAPSIS":"300.043","MEAN_MOTION":"15.91133473","OBJECT_NAME":"STARLINK-1023","EPOCH":"2021-12-10T22:07:16.827456","FILE":"3237005","ARG_OF_PERICENTER":"114.8383","ECCENTRICITY":"0.00013940","NORAD_CAT_ID":"44728","ELEMENT_SET_NO":"999","SEMIMAJOR_AXIS":"6677.247","TLE_LINE2":"2 44728  53.0507 245.8408 0001394 114.8383 245.2788 15.91133473115979","OBJECT_TYPE":"PAYLOAD","LAUNCH_DATE":"2019-11-11","RA_OF_ASC_NODE":"245.8408"},{"NORAD_CAT_ID":"44729","ECCENTRICITY":"0.00020040","FILE":"3237005","EPOCH":"2021-12-10T22:20:01.169376","ARG_OF_PERICENTER":"64.0390","RA_OF_ASC_NODE":"319.9571","TLE_LINE2":"2 44729  53.0015 319.9571 0002004  64.0390 296.0805 15.08392442114919","OBJECT_TYPE":"PAYLOAD","LAUNCH_DATE":"2019-11-11","ELEMENT_SET_NO":"999","SEMIMAJOR_AXIS":"6919.249","CLASSIFICATION_TYPE":"U","SITE":"AFETR","EPHEMERIS_TYPE":"0","MEAN_MOTION":"15.08392442","OBJECT_NAME":"STARLINK-1024","RCS_SIZE":"LARGE","MEAN_MOTION_DDOT":"0.0000000000000","APOAPSIS":"542.500","REF_FRAME":"TEME","PERIOD":"95.466","CENTER_NAME":"EARTH","OBJECT_ID":"2019-074S","COUNTRY_CODE":"US","INCLINATION":"53.0015","GP_ID":"191456802","DECAY_DATE":null,"MEAN_MOTION_DOT":"0.00002879","MEAN_ELEMENT_THEORY":"SGP4","TLE_LINE1":"1 44729U 19074S   21344.93056909  .00002879  00000-0  20126-3 0  9992","REV_AT_EPOCH":"11491","TIME_SYSTEM":"UTC","BSTAR":"0.00020126000000","MEAN_ANOMALY":"296.0805","PERIAPSIS":"539.727"},{"BSTAR":"0.00003798000000","TIME_SYSTEM":"UTC","REV_AT_EPOCH":"11515","MEAN_ANOMALY":"304.7890","PERIAPSIS":"545.742","CENTER_NAME":"EARTH","OBJECT_ID":"2019-074U","COUNTRY_CODE":"US","REF_FRAME":"TEME","PERIOD":"95.592","GP_ID":"191457553","INCLINATION":"53.0539","DECAY_DATE":null,"MEAN_ELEMENT_THEORY":"SGP4","TLE_LINE1":"1 44731U 19074U   21344.88910988  .00000284  00000-0  37980-4 0  9990","MEAN_MOTION_DOT":"0.00000284","EPHEMERIS_TYPE":"0","SITE":"AFETR","CLASSIFICATION_TYPE":"U","OBJECT_NAME":"STARLINK-1026","MEAN_MOTION":"15.06398471","APOAPSIS":"548.695","RCS_SIZE":"LARGE","MEAN_MOTION_DDOT":"0.0000000000000","NORAD_CAT_ID":"44731","ECCENTRICITY":"0.00021320","ARG_OF_PERICENTER":"55.3300","FILE":"3237005","EPOCH":"2021-12-10T21:20:19.093632","RA_OF_ASC_NODE":"303.9443","LAUNCH_DATE":"2019-11-11","TLE_LINE2":"2 44731  53.0539 303.9443 0002132  55.3300 304.7890 15.06398471115154","OBJECT_TYPE":"PAYLOAD","SEMIMAJOR_AXIS":"6925.353","ELEMENT_SET_NO":"999"},{"EPOCH":"2021-12-10T08:17:26.113632","FILE":"3236672","ARG_OF_PERICENTER":"64.0961","ECCENTRICITY":"0.00018400","NORAD_CAT_ID":"44732","ELEMENT_SET_NO":"999","SEMIMAJOR_AXIS":"6925.365","TLE_LINE2":"2 44732  53.0545 326.3882 0001840  64.0961 296.0218 15.06394533114794","OBJECT_TYPE":"PAYLOAD","LAUNCH_DATE":"2019-11-11","RA_OF_ASC_NODE":"326.3882","CLASSIFICATION_TYPE":"U","EPHEMERIS_TYPE":"0","SITE":"AFETR","MEAN_MOTION_DDOT":"0.0000000000000","RCS_SIZE":"LARGE","APOAPSIS":"548.505","MEAN_MOTION":"15.06394533","OBJECT_NAME":"STARLINK-1027","INCLINATION":"53.0545","GP_ID":"191425296","REF_FRAME":"TEME","PERIOD":"95.592","COUNTRY_CODE":"US","OBJECT_ID":"2019-074V","CENTER_NAME":"EARTH","MEAN_MOTION_DOT":"-0.00000665","TLE_LINE1":"1 44732U 19074V   21344.34544113 -.00000665  00000-0 -25722-4 0  9991","MEAN_ELEMENT_THEORY":"SGP4","DECAY_DATE":null,"MEAN_ANOMALY":"296.0218","TIME_SYSTEM":"UTC","REV_AT_EPOCH":"11479","BSTAR":"-0.00002572200000","PERIAPSIS":"545.956"},{"OBJECT_NAME":"STARLINK-1028","MEAN_MOTION":"15.06395020","APOAPSIS":"548.561","RCS_SIZE":"LARGE","MEAN_MOTION_DDOT":"0.0000000000000","SITE":"AFETR","EPHEMERIS_TYPE":"0","CLASSIFICATION_TYPE":"U","RA_OF_ASC_NODE":"305.2080","LAUNCH_DATE":"2019-11-11","TLE_LINE2":"2 44733  53.0557 305.2080 0001923  51.0554 309.0607 15.06395020115116","OBJECT_TYPE":"PAYLOAD","SEMIMAJOR_AXIS":"6925.364","ELEMENT_SET_NO":"999","NORAD_CAT_ID":"44733","ECCENTRICITY":"0.00019230","ARG_OF_PERICENTER":"51.0554","FILE":"3237005","EPOCH":"2021-12-10T14:36:56.068992","PERIAPSIS":"545.897","BSTAR":"-0.00001936900000","TIME_SYSTEM":"UTC","REV_AT_EPOCH":"11511","MEAN_ANOMALY":"309.0607","DECAY_DATE":null,"MEAN_ELEMENT_THEORY":"SGP4","TLE_LINE1":"1 44733U 19074W   21344.60898228 -.00000570  00000-0 -19369-4 0  9995","MEAN_MOTION_DOT":"-0.00000570","CENTER_NAME":"EARTH","OBJECT_ID":"2019-074W","COUNTRY_CODE":"US","REF_FRAME":"TEME","PERIOD":"95.592","INCLINATION":"53.0557","GP_ID":"191456051"},{"SEMIMAJOR_AXIS":"6925.373","ELEMENT_SET_NO":"999","RA_OF_ASC_NODE":"224.2251","LAUNCH_DATE":"2019-11-11","TLE_LINE2":"2 44734  53.0558 224.2251 0002221  66.2649 293.8572 15.06391947116243","OBJECT_TYPE":"PAYLOAD","ARG_OF_PERICENTER":"66.2649","FILE":"3237005","EPOCH":"2021-12-10T19:44:47.555232","NORAD_CAT_ID":"44734","ECCENTRICITY":"0.00022210","APOAPSIS":"548.776","RCS_SIZE":"LARGE","MEAN_MOTION_DDOT":"0.0000000000000","OBJECT_NAME":"STARLINK-1029","MEAN_MOTION":"15.06391947","SITE":"AFETR","EPHEMERIS_TYPE":"0","CLASSIFICATION_TYPE":"U","MEAN_ELEMENT_THEORY":"SGP4","TLE_LINE1":"1 44734U 19074X   21344.82277263 -.00001048  00000-0 -51431-4 0  9997","MEAN_MOTION_DOT":"-0.00001048","DECAY_DATE":null,"INCLINATION":"53.0558","GP_ID":"191457303","OBJECT_ID":"2019-074X","CENTER_NAME":"EARTH","COUNTRY_CODE":"US","PERIOD":"95.593","REF_FRAME":"TEME","PERIAPSIS":"545.700","MEAN_ANOMALY":"293.8572","BSTAR":"-0.00005143100000","REV_AT_EPOCH":"11624","TIME_SYSTEM":"UTC"},{"FILE":"3237005","EPOCH":"2021-12-10T18:01:17.137056","ARG_OF_PERICENTER":"62.2871","NORAD_CAT_ID":"44735","ECCENTRICITY":"0.00018960","ELEMENT_SET_NO":"999","SEMIMAJOR_AXIS":"6925.365","RA_OF_ASC_NODE":"324.5743","TLE_LINE2":"2 44735  53.0538 324.5743 0001896  62.2871 297.8310 15.06394681114859","OBJECT_TYPE":"PAYLOAD","LAUNCH_DATE":"2019-11-11","CLASSIFICATION_TYPE":"U","SITE":"AFETR","EPHEMERIS_TYPE":"0","RCS_SIZE":"LARGE","MEAN_MOTION_DDOT":"0.0000000000000","APOAPSIS":"548.543","MEAN_MOTION":"15.06394681","OBJECT_NAME":"STARLINK-1030","INCLINATION":"53.0538","GP_ID":"191457053","PERIOD":"95.592","REF_FRAME":"TEME","CENTER_NAME":"EARTH","OBJECT_ID":"2019-074Y","COUNTRY_CODE":"US","MEAN_MOTION_DOT":"-0.00000571","MEAN_ELEMENT_THEORY":"SGP4","TLE_LINE1":"1 44735U 19074Y   21344.75089279 -.00000571  00000-0 -19435-4 0  9996","DECAY_DATE":null,"MEAN_ANOMALY":"297.8310","REV_AT_EPOCH":"11485","TIME_SYSTEM":"UTC","BSTAR":"-0.00001943500000","PERIAPSIS":"545.917"},{"OBJECT_NAME":"STARLINK-1031","MEAN_MOTION":"15.06395082","APOAPSIS":"548.470","RCS_SIZE":"LARGE","MEAN_MOTION_DDOT":"0.0000000000000","EPHEMERIS_TYPE":"0","SITE":"AFETR","CLASSIFICATION_TYPE":"U","RA_OF_ASC_NODE":"324.5057","TLE_LINE2":"2 44736  53.0554 324.5057 0001793  67.1610 292.9568 15.06395082114865","OBJECT_TYPE":"PAYLOAD","LAUNCH_DATE":"2019-11-11","SEMIMAJOR_AXIS":"6925.364","ELEMENT_SET_NO":"999","NORAD_CAT_ID":"44736","ECCENTRICITY":"0.00017930","ARG_OF_PERICENTER":"67.1610","FILE":"3237005","EPOCH":"2021-12-10T18:22:31.171584","PERIAPSIS":"545.987","BSTAR":"-0.00002333800000","REV_AT_EPOCH":"11486","TIME_SYSTEM":"UTC","MEAN_ANOMALY":"292.9568","DECAY_DATE":null,"MEAN_ELEMENT_THEORY":"SGP4","TLE_LINE1":"1 44736U 19074Z   21344.76563856 -.00000629  00000-0 -23338-4 0  9997","MEAN_MOTION_DOT":"-0.00000629","CENTER_NAME":"EARTH","OBJECT_ID":"2019-074Z","COUNTRY_CODE":"US","PERIOD":"95.592","REF_FRAME":"TEME","INCLINATION":"53.0554","GP_ID":"191455801"},{"ECCENTRICITY":"0.00018230","NORAD_CAT_ID":"44737","ARG_OF_PERICENTER":"57.4775","EPOCH":"2021-12-10T15:27:21.934368","FILE":"3237005","TLE_LINE2":"2 44737  53.0555 325.0539 0001823  57.4775 302.6390 15.06398712114849","LAUNCH_DATE":"2019-11-11","OBJECT_TYPE":"PAYLOAD","RA_OF_ASC_NODE":"325.0539","SEMIMAJOR_AXIS":"6925.353","ELEMENT_SET_NO":"999","EPHEMERIS_TYPE":"0","SITE":"AFETR","CLASSIFICATION_TYPE":"U","OBJECT_NAME":"STARLINK-1032","MEAN_MOTION":"15.06398712","APOAPSIS":"548.480","MEAN_MOTION_DDOT":"0.0000000000000","RCS_SIZE":"LARGE","COUNTRY_CODE":"US","OBJECT_ID":"2019-074AA","CENTER_NAME":"EARTH","REF_FRAME":"TEME","PERIOD":"95.592","INCLINATION":"53.0555","GP_ID":"191456552","DECAY_DATE":null,"TLE_LINE1":"1 44737U 19074AA  21344.64400387  .00000952  00000-0  82794-4 0  9992","MEAN_ELEMENT_THEORY":"SGP4","MEAN_MOTION_DOT":"0.00000952","BSTAR":"0.00008279400000","TIME_SYSTEM":"UTC","REV_AT_EPOCH":"11484","MEAN_ANOMALY":"302.6390","PERIAPSIS":"545.955"},{"ELEMENT_SET_NO":"999","SEMIMAJOR_AXIS":"6925.358","TLE_LINE2":"2 44738  53.0540 323.6108 0001987  63.8742 296.2451 15.06396890114881","OBJECT_TYPE":"PAYLOAD","LAUNCH_DATE":"2019-11-11","RA_OF_ASC_NODE":"323.6108","EPOCH":"2021-12-10T23:03:49.694976","FILE":"3237005","ARG_OF_PERICENTER":"63.8742","ECCENTRICITY":"0.00019870","NORAD_CAT_ID":"44738","MEAN_MOTION_DDOT":"0.0000000000000","RCS_SIZE":"LARGE","APOAPSIS":"548.599","MEAN_MOTION":"15.06396890","OBJECT_NAME":"STARLINK-1033","CLASSIFICATION_TYPE":"U","SITE":"AFETR","EPHEMERIS_TYPE":"0","MEAN_MOTION_DOT":"-0.00001073","TLE_LINE1":"1 44738U 19074AB  21344.96099184 -.00001073  00000-0 -53143-4 0  9990","MEAN_ELEMENT_THEORY":"SGP4","DECAY_DATE":null,"INCLINATION":"53.0540","GP_ID":"191456803","REF_FRAME":"TEME","PERIOD":"95.592","COUNTRY_CODE":"US","OBJECT_ID":"2019-074AB","CENTER_NAME":"EARTH","PERIAPSIS":"545.847","MEAN_ANOMALY":"296.2451","TIME_SYSTEM":"UTC","REV_AT_EPOCH":"11488","BSTAR":"-0.00005314300000"}];
